{"type": "FeatureCollection", "features": [ {"type": "Feature", "properties": {"norad_id": 42917, "name": "QZS-3 (QZSS/PRN 199)", "group": "gnss", "lat": -0.02734294751927117, "lon": -161.48410603464086, "alt_km": 35781.662836711635, "timestamp": "2025-12-08T23:34:04.212071+00:00", "meta": {"OBJECT_NAME": "QZS-3 (QZSS/PRN 199)", "OBJECT_ID": "2017-048A", "EPOCH": "2025-12-08T14:29:38.895360", "MEAN_MOTION": 1.00273695, "ECCENTRICITY": 0.00021828, "INCLINATION": 0.0648, "RA_OF_ASC_NODE": 207.5516, "ARG_OF_PERICENTER": 55.7295, "MEAN_ANOMALY": 158.7809, "EPHEMERIS_TYPE": 0, "CLASSIFICATION_TYPE": "U", "NORAD_CAT_ID": 42917, "ELEMENT_SET_NO": 999, "REV_AT_EPOCH": 3034, "BSTAR": 0, "MEAN_MOTION_DOT": -3.45e-06, "MEAN_MOTION_DDOT": 0}, "tle": {"line1": "1 42917U 17048A   25342.60392240 -.00000345  00000+0  00000+0 0  9996", "line2": "2 42917   0.0648 207.5516 0002182  55.7295 158.7809  1.00273695 30346"}}, "geometry": {"type": "Point", "coordinates": [-161.48410603464086, -0.02734294751927117]}}, {"type": "Feature", "properties": {"norad_id": 42939, "name": "COSMOS 2522 (752)", "group": "gnss", "lat": -57.59679731197187, "lon": 148.3273189322391, "alt_km": 19129.157522179994, "timestamp": "2025-12-08T23:34:04.212087+00:00", "meta": {"OBJECT_NAME": "COSMOS 2522 (752)", "OBJECT_ID": "2017-055A", "EPOCH": "2025-12-08T03:13:49.063296", "MEAN_MOTION": 2.13101881, "ECCENTRICITY": 0.00064484, "INCLINATION": 64.0758, "RA_OF_ASC_NODE": 198.386, "ARG_OF_PERICENTER": 225.1717, "MEAN_ANOMALY": 134.8539, "EPHEMERIS_TYPE": 0, "CLASSIFICATION_TYPE": "U", "NORAD_CAT_ID": 42939, "ELEMENT_SET_NO": 999, "REV_AT_EPOCH": 6390, "BSTAR": 0, "MEAN_MOTION_DOT": 5.1e-07, "MEAN_MOTION_DDOT": 0}, "tle": {"line1": "1 42939U 17055A   25342.13459564  .00000051  00000+0  00000+0 0  9992", "line2": "2 42939  64.0758 198.3860 0006448 225.1717 134.8539  2.13101881 63907"}}, "geometry": {"type": "Point", "coordinates": [148.3273189322391, -57.59679731197187]}}, {"type": "Feature", "properties": {"norad_id": 42965, "name": "QZS-4 (QZSS/PRN 195)", "group": "gnss", "lat": -21.92728197439268, "lon": -165.65399611663673, "alt_km": 33858.566903234634, "timestamp": "2025-12-08T23:34:04.212099+00:00", "meta": {"OBJECT_NAME": "QZS-4 (QZSS/PRN 195)", "OBJECT_ID": "2017-062A", "EPOCH": "2025-12-08T08:25:51.614976", "MEAN_MOTION": 1.00253559, "ECCENTRICITY": 0.07523524, "INCLINATION": 40.228, "RA_OF_ASC_NODE": 345.9263, "ARG_OF_PERICENTER": 271.4386, "MEAN_ANOMALY": 83.2096, "EPHEMERIS_TYPE": 0, "CLASSIFICATION_TYPE": "U", "NORAD_CAT_ID": 42965, "ELEMENT_SET_NO": 999, "REV_AT_EPOCH": 2989, "BSTAR": 0, "MEAN_MOTION_DOT": -3.51e-06, "MEAN_MOTION_DDOT": 0}, "tle": {"line1": "1 42965U 17062A   25342.35129184 -.00000351  00000+0  00000+0 0  9999", "line2": "2 42965  40.2280 345.9263 0752352 271.4386  83.2096  1.00253559 29897"}}, "geometry": {"type": "Point", "coordinates": [-165.65399611663673, -21.92728197439268]}}, {"type": "Feature", "properties": {"norad_id": 43001, "name": "BEIDOU-3 M1 (C19)", "group": "gnss", "lat": -37.07201351146632, "lon": 39.419154360310486, "alt_km": 21507.77563109194, "timestamp": "2025-12-08T23:34:04.212111+00:00", "meta": {"OBJECT_NAME": "BEIDOU-3 M1 (C19)", "OBJECT_ID": "2017-069A", "EPOCH": "2025-12-07T10:33:38.997216", "MEAN_MOTION": 1.86230818, "ECCENTRICITY": 0.00090499, "INCLINATION": 56.5227, "RA_OF_ASC_NODE": 69.4088, "ARG_OF_PERICENTER": 303.7178, "MEAN_ANOMALY": 56.2144, "EPHEMERIS_TYPE": 0, "CLASSIFICATION_TYPE": "U", "NORAD_CAT_ID": 43001, "ELEMENT_SET_NO": 999, "REV_AT_EPOCH": 5503, "BSTAR": 0, "MEAN_MOTION_DOT": -4.4e-07, "MEAN_MOTION_DDOT": 0}, "tle": {"line1": "1 43001U 17069A   25341.44003469 -.00000044  00000+0  00000+0 0  9993", "line2": "2 43001  56.5227  69.4088 0009049 303.7178  56.2144  1.86230818 55035"}}, "geometry": {"type": "Point", "coordinates": [39.419154360310486, -37.07201351146632]}}, {"type": "Feature", "properties": {"norad_id": 43002, "name": "BEIDOU-3 M2 (C20)", "group": "gnss", "lat": -4.067611081565208, "lon": 66.71047308557287, "alt_km": 21512.682182622655, "timestamp": "2025-12-08T23:34:04.212122+00:00", "meta": {"OBJECT_NAME": "BEIDOU-3 M2 (C20)", "OBJECT_ID": "2017-069B", "EPOCH": "2025-12-08T10:51:18.927360", "MEAN_MOTION": 1.86230678, "ECCENTRICITY": 0.00063835, "INCLINATION": 56.5226, "RA_OF_ASC_NODE": 69.4117, "ARG_OF_PERICENTER": 330.8717, "MEAN_ANOMALY": 29.1139, "EPHEMERIS_TYPE": 0, "CLASSIFICATION_TYPE": "U", "NORAD_CAT_ID": 43002, "ELEMENT_SET_NO": 999, "REV_AT_EPOCH": 5504, "BSTAR": 0, "MEAN_MOTION_DOT": -4.4e-07, "MEAN_MOTION_DDOT": 0}, "tle": {"line1": "1 43002U 17069B   25342.45230240 -.00000044  00000+0  00000+0 0  9995", "line2": "2 43002  56.5226  69.4117 0006383 330.8717  29.1139  1.86230678 55044"}}, "geometry": {"type": "Point", "coordinates": [66.71047308557287, -4.067611081565208]}}, {"type": "Feature", "properties": {"norad_id": 43055, "name": "GSAT0215 (GALILEO 19)", "group": "gnss", "lat": 9.52115278276639, "lon": -126.54028467541856, "alt_km": 23220.479769936675, "timestamp": "2025-12-08T23:34:04.212133+00:00", "meta": {"OBJECT_NAME": "GSAT0215 (GALILEO 19)", "OBJECT_ID": "2017-079A", "EPOCH": "2025-12-06T00:43:24.455424", "MEAN_MOTION": 1.70473755, "ECCENTRICITY": 0.00048437, "INCLINATION": 55.1369, "RA_OF_ASC_NODE": 226.8228, "ARG_OF_PERICENTER": 284.5496, "MEAN_ANOMALY": 75.4946, "EPHEMERIS_TYPE": 0, "CLASSIFICATION_TYPE": "U", "NORAD_CAT_ID": 43055, "ELEMENT_SET_NO": 999, "REV_AT_EPOCH": 4969, "BSTAR": 0, "MEAN_MOTION_DOT": 3.4e-07, "MEAN_MOTION_DDOT": 0}, "tle": {"line1": "1 43055U 17079A   25340.03014416  .00000034  00000+0  00000+0 0  9999", "line2": "2 43055  55.1369 226.8228 0004843 284.5496  75.4946  1.70473755 49697"}}, "geometry": {"type": "Point", "coordinates": [-126.54028467541856, 9.52115278276639]}}, {"type": "Feature", "properties": {"norad_id": 43056, "name": "GSAT0216 (GALILEO 20)", "group": "gnss", "lat": -10.447785302377957, "lon": 54.131180574221126, "alt_km": 23228.135082750287, "timestamp": "2025-12-08T23:34:04.212145+00:00", "meta": {"OBJECT_NAME": "GSAT0216 (GALILEO 20)", "OBJECT_ID": "2017-079B", "EPOCH": "2025-12-08T01:57:06.766848", "MEAN_MOTION": 1.70473892, "ECCENTRICITY": 0.00025149, "INCLINATION": 55.132, "RA_OF_ASC_NODE": 226.7661, "ARG_OF_PERICENTER": 318.3772, "MEAN_ANOMALY": 41.6956, "EPHEMERIS_TYPE": 0, "CLASSIFICATION_TYPE": "U", "NORAD_CAT_ID": 43056, "ELEMENT_SET_NO": 999, "REV_AT_EPOCH": 4974, "BSTAR": 0, "MEAN_MOTION_DOT": 1.9e-07, "MEAN_MOTION_DDOT": 0}, "tle": {"line1": "1 43056U 17079B   25342.08132832  .00000019  00000+0  00000+0 0  9993", "line2": "2 43056  55.1320 226.7661 0002514 318.3772  41.6956  1.70473892 49745"}}, "geometry": {"type": "Point", "coordinates": [54.131180574221126, -10.447785302377957]}}, {"type": "Feature", "properties": {"norad_id": 43057, "name": "GSAT0217 (GALILEO 21)", "group": "gnss", "lat": 43.692804267609596, "lon": -91.52351862330642, "alt_km": 23214.78660516238, "timestamp": "2025-12-08T23:34:04.212156+00:00", "meta": {"OBJECT_NAME": "GSAT0217 (GALILEO 21)", "OBJECT_ID": "2017-079C", "EPOCH": "2025-12-08T07:14:55.853376", "MEAN_MOTION": 1.70473894, "ECCENTRICITY": 0.0002795, "INCLINATION": 55.1299, "RA_OF_ASC_NODE": 226.758, "ARG_OF_PERICENTER": 342.2851, "MEAN_ANOMALY": 17.7961, "EPHEMERIS_TYPE": 0, "CLASSIFICATION_TYPE": "U", "NORAD_CAT_ID": 43057, "ELEMENT_SET_NO": 999, "REV_AT_EPOCH": 4973, "BSTAR": 0, "MEAN_MOTION_DOT": 1.7e-07, "MEAN_MOTION_DDOT": 0}, "tle": {"line1": "1 43057U 17079C   25342.30203534  .00000017  00000+0  00000+0 0  9995", "line2": "2 43057  55.1299 226.7580 0002795 342.2851  17.7961  1.70473894 49737"}}, "geometry": {"type": "Point", "coordinates": [-91.52351862330642, 43.692804267609596]}}, {"type": "Feature", "properties": {"norad_id": 43058, "name": "GSAT0218 (GALILEO 22)", "group": "gnss", "lat": -53.3087002514775, "lon": 157.52700299033296, "alt_km": 23220.27189216265, "timestamp": "2025-12-08T23:34:04.212170+00:00", "meta": {"OBJECT_NAME": "GSAT0218 (GALILEO 22)", "OBJECT_ID": "2017-079D", "EPOCH": "2025-12-06T18:17:46.482720", "MEAN_MOTION": 1.70473862, "ECCENTRICITY": 0.00028449, "INCLINATION": 55.1307, "RA_OF_ASC_NODE": 226.7982, "ARG_OF_PERICENTER": 305.5375, "MEAN_ANOMALY": 54.5328, "EPHEMERIS_TYPE": 0, "CLASSIFICATION_TYPE": "U", "NORAD_CAT_ID": 43058, "ELEMENT_SET_NO": 999, "REV_AT_EPOCH": 4973, "BSTAR": 0, "MEAN_MOTION_DOT": 2.9e-07, "MEAN_MOTION_DDOT": 0}, "tle": {"line1": "1 43058U 17079D   25340.76234355  .00000029  00000+0  00000+0 0  9992", "line2": "2 43058  55.1307 226.7982 0002844 305.5375  54.5328  1.70473862 49733"}}, "geometry": {"type": "Point", "coordinates": [157.52700299033296, -53.3087002514775]}}, {"type": "Feature", "properties": {"norad_id": 43107, "name": "BEIDOU-3 M7 (C27)", "group": "gnss", "lat": 10.154777970390393, "lon": 121.58607419944245, "alt_km": 21527.93578632569, "timestamp": "2025-12-08T23:34:04.212182+00:00", "meta": {"OBJECT_NAME": "BEIDOU-3 M7 (C27)", "OBJECT_ID": "2018-003A", "EPOCH": "2025-12-08T04:41:21.311520", "MEAN_MOTION": 1.86232319, "ECCENTRICITY": 0.00027287, "INCLINATION": 54.5008, "RA_OF_ASC_NODE": 308.973, "ARG_OF_PERICENTER": 69.0594, "MEAN_ANOMALY": 290.9569, "EPHEMERIS_TYPE": 0, "CLASSIFICATION_TYPE": "U", "NORAD_CAT_ID": 43107, "ELEMENT_SET_NO": 999, "REV_AT_EPOCH": 5379, "BSTAR": 0, "MEAN_MOTION_DOT": -7.3e-07, "MEAN_MOTION_DDOT": 0}, "tle": {"line1": "1 43107U 18003A   25342.19538555 -.00000073  00000+0  00000+0 0  9993", "line2": "2 43107  54.5008 308.9730 0002728  69.0594 290.9569  1.86232319 53790"}}, "geometry": {"type": "Point", "coordinates": [121.58607419944245, 10.154777970390393]}}]}